1 43013U 17073A   26195.84340712  .00000006  00000+0  23681-4 0  9990
2 43013  98.7772 135.0610 0001373 125.0813 235.0491 14.19516397448391
